NORAD_CAT_ID,OBJECT_NAME,OBJECT_TYPE,EPOCH,MEAN_MOTION,ECCENTRICITY,INCLINATION,RA_OF_ASC_NODE,ARG_OF_PERICENTER,MEAN_ANOMALY,BSTAR,MEAN_MOTION_DOT,MEAN_MOTION_DDOT,TLE_LINE0,TLE_LINE1,TLE_LINE2,SEMIMAJOR_AXIS,PERIOD,APOGEE,PERIGEE,DECAYED
55770.0,STARLINK-5557,PAYLOAD,2024-02-29 19:10:50,14.98331719,0.000285,69.9982,287.4952,271.5485,88.5347,2.3629e-06,-6.5e-07,0.0,0 STARLINK-5557,1 55770U 23028AF  24060.79919946 -.00000065  00000-0  23629-5 0  9994,2 55770  69.9982 287.4952 0002850 271.5485  88.5347 14.98331719 55846,6950.188,96.107,574.033,570.072,0.0
55770.0,STARLINK-5557,PAYLOAD,2024-02-29 22:23:07,14.98331478,0.0002889,69.9982,287.1582,272.7108,87.3721,-2.0142e-05,-3.33e-06,0.0,0 STARLINK-5557,1 55770U 23028AF  24060.93272018 -.00000333  00000-0 -20142-4 0  9997,2 55770  69.9982 287.1582 0002889 272.7108  87.3721 14.98331478 55877,6950.188,96.107,574.061,570.045,0.0
55770.0,STARLINK-5557,PAYLOAD,2024-03-01 07:59:55,14.98340183,0.0002895,69.9984,286.1481,270.6708,89.4119,-0.00010907,-1.394e-05,0.0,0 STARLINK-5557,1 55770U 23028AF  24061.33327576 -.00001394  00000-0 -10907-3 0  9997,2 55770  69.9984 286.1481 0002895 270.6708  89.4119 14.98340183 55930,6950.161,96.106,574.038,570.014,0.0
55770.0,STARLINK-5557,PAYLOAD,2024-03-01 19:12:51,14.98332793,0.0002958,69.9981,284.9699,269.4577,90.6243,5.3468e-05,5.45e-06,0.0,0 STARLINK-5557,1 55770U 23028AF  24061.80059541  .00000545  00000-0  53468-4 0  9998,2 55770  69.9981 284.9699 0002958 269.4577  90.6243 14.98332793 55990,6950.184,96.107,574.105,569.993,0.0
55770.0,STARLINK-5557,PAYLOAD,2024-03-01 20:48:59,14.98332399,0.0002964,69.9981,284.8016,269.3364,90.7455,4.7839e-05,4.78e-06,0.0,0 STARLINK-5557,1 55770U 23028AF  24061.86735569  .00000478  00000-0  47839-4 0  9995,2 55770  69.9981 284.8016 0002964 269.3364  90.7455 14.98332399 56014,6950.185,96.107,574.111,569.99,0.0
55770.0,STARLINK-5557,PAYLOAD,2024-03-02 00:01:15,14.98334952,0.0002925,69.998,284.4648,269.6306,90.4518,7.4918e-05,8.01e-06,0.0,0 STARLINK-5557,1 55770U 23028AF  24062.00087292  .00000801  00000-0  74918-4 0  9993,2 55770  69.9980 284.4648 0002925 269.6306  90.4518 14.98334952 56032,6950.178,96.107,574.076,570.01,0.0
55770.0,STARLINK-5557,PAYLOAD,2024-03-02 19:14:52,14.98325335,0.0002914,69.9977,282.4445,269.7118,90.3707,-4.1983e-05,-5.94e-06,0.0,0 STARLINK-5557,1 55770U 23028AF  24062.80200175 -.00000594  00000-0 -41983-4 0  9995,2 55770  69.9977 282.4445 0002914 269.7118  90.3707 14.98325335 56147,6950.207,96.107,574.098,570.047,0.0
55770.0,STARLINK-5557,PAYLOAD,2024-03-02 22:27:09,14.98325377,0.0002754,69.9984,282.1089,260.3075,99.7773,-5.8294e-05,-7.88e-06,0.0,0 STARLINK-5557,1 55770U 23028AF  24062.93552198 -.00000788  00000-0 -58294-4 0  9992,2 55770  69.9984 282.1089 0002754 260.3075  99.7773 14.98325377 56172,6950.207,96.107,573.986,570.158,0.0
55770.0,STARLINK-5557,PAYLOAD,2024-03-03 08:03:57,14.98325089,0.0003076,69.9975,281.097,272.8356,87.2451,4.0151e-05,3.86e-06,0.0,0 STARLINK-5557,1 55770U 23028AF  24063.33608030  .00000386  00000-0  40151-4 0  9999,2 55770  69.9975 281.0970 0003076 272.8356  87.2451 14.98325089 56239,6950.208,96.107,574.211,569.935,0.0
55770.0,STARLINK-5557,PAYLOAD,2024-03-03 20:53:01,14.98334934,0.0003085,69.9972,279.7506,268.9759,91.1046,-2.1552e-05,-3.5e-06,0.0,0 STARLINK-5557,1 55770U 23028AF  24063.87015497 -.00000350  00000-0 -21552-4 0  9994,2 55770  69.9972 279.7506 0003085 268.9759  91.1046 14.98334934 56310,6950.178,96.107,574.187,569.899,0.0
55770.0,STARLINK-5557,PAYLOAD,2024-03-04 00:05:17,14.98338004,0.0003016,69.9974,279.4137,267.3297,92.7517,1.5043e-05,8.6e-07,0.0,0 STARLINK-5557,1 55770U 23028AF  24064.00367118  .00000086  00000-0  15043-4 0  9992,2 55770  69.9974 279.4137 0003016 267.3297  92.7517 14.98338004 56326,6950.168,96.106,574.129,569.937,0.0
55770.0,STARLINK-5557,PAYLOAD,2024-03-04 14:30:29,14.98333212,0.0002931,69.9974,277.8984,265.1839,94.8985,9.7155e-05,1.066e-05,0.0,0 STARLINK-5557,1 55770U 23028AF  24064.60451011  .00001066  00000-0  97155-4 0  9997,2 55770  69.9974 277.8984 0002931 265.1839  94.8985 14.98333212 56420,6950.183,96.107,574.085,570.011,0.0
55770.0,STARLINK-5557,PAYLOAD,2024-03-04 22:31:10,14.98330447,0.0002882,69.9976,277.0569,265.9055,94.1774,9.3188e-05,1.019e-05,0.0,0 STARLINK-5557,1 55770U 23028AF  24064.93831142  .00001019  00000-0  93188-4 0  9990,2 55770  69.9976 277.0569 0002882 265.9055  94.1774 14.98330447 56477,6950.192,96.107,574.06,570.053,0.0
55770.0,STARLINK-5557,PAYLOAD,2024-03-05 00:07:18,14.98331291,0.0002943,69.9976,276.8886,267.6603,92.4219,0.00010043,1.106e-05,0.0,0 STARLINK-5557,1 55770U 23028AF  24065.00507063  .00001106  00000-0  10043-3 0  9996,2 55770  69.9976 276.8886 0002943 267.6603  92.4219 14.98331291 56475,6950.189,96.107,574.099,570.008,0.0
55770.0,STARLINK-5557,PAYLOAD,2024-03-05 14:32:31,14.98328272,0.0002912,69.9977,275.3736,269.5388,90.5437,-6.1933e-05,-8.32e-06,0.0,0 STARLINK-5557,1 55770U 23028AF  24065.60591723 -.00000832  00000-0 -61933-4 0  9990,2 55770  69.9977 275.3736 0002912 269.5388  90.5437 14.98328272 56578,6950.198,96.107,574.087,570.039,0.0
55770.0,STARLINK-5557,PAYLOAD,2024-03-05 19:20:55,14.98326812,0.0002918,69.9978,274.8691,271.7819,88.3005,-5.7061e-05,-7.74e-06,0.0,0 STARLINK-5557,1 55770U 23028AF  24065.80619832 -.00000774  00000-0 -57061-4 0  9996,2 55770  69.9978 274.8691 0002918 271.7819  88.3005 14.98326812 56599,6950.203,96.107,574.096,570.04,0.0
55770.0,STARLINK-5557,PAYLOAD,2024-03-06 14:34:32,14.98331493,0.0002923,69.9978,272.8491,272.6084,87.474,-3.0555e-05,-4.58e-06,0.0,0 STARLINK-5557,1 55770U 23028AF  24066.60731485 -.00000458  00000-0 -30555-4 0  9992,2 55770  69.9978 272.8491 0002923 272.6084  87.4740 14.98331493 56727,6950.188,96.107,574.085,570.022,0.0
55770.0,STARLINK-5557,PAYLOAD,2024-03-06 22:35:12,14.98331539,0.0002837,69.998,272.0082,267.4322,92.6513,-1.3811e-05,-2.58e-06,0.0,0 STARLINK-5557,1 55770U 23028AF  24066.94111378 -.00000258  00000-0 -13811-4 0  9996,2 55770  69.9980 272.0082 0002837 267.4322  92.6513 14.98331539 56760,6950.188,96.107,574.025,570.081,0.0
55770.0,STARLINK-5557,PAYLOAD,2024-03-07 14:36:32,14.98327405,0.0002936,69.9975,270.3243,268.2493,91.833,6.1232e-05,6.38e-06,0.0,0 STARLINK-5557,1 55770U 23028AF  24067.60871428  .00000638  00000-0  61232-4 0  9999,2 55770  69.9975 270.3243 0002936 268.2493  91.8330 14.98327405 56879,6950.201,96.107,574.106,570.025,0.0
55770.0,STARLINK-5557,PAYLOAD,2024-03-08 13:02:25,14.98331603,0.0002895,69.9976,267.9671,267.7327,92.35,1.5005e-05,8.6e-07,0.0,0 STARLINK-5557,1 55770U 23028AF  24068.54335317  .00000086  00000-0  15005-4 0  9999,2 55770  69.9976 267.9671 0002895 267.7327  92.3500 14.98331603 57018,6950.188,96.107,574.065,570.041,0.0
55770.0,STARLINK-5557,PAYLOAD,2024-03-09 13:04:26,14.98330015,0.0002882,69.9976,265.4413,269.2852,90.7977,-1.5648e-06,-1.12e-06,0.0,0 STARLINK-5557,1 55770U 23028AF  24069.54475328 -.00000112  00000-0 -15648-5 0  9993,2 55770  69.9976 265.4413 0002882 269.2852  90.7977 14.98330015 57163,6950.193,96.107,574.061,570.055,0.0
55770.0,STARLINK-5557,PAYLOAD,2024-03-09 19:28:58,14.98330176,0.0002901,69.9976,264.7681,269.5522,90.5305,-1.0309e-05,-2.16e-06,0.0,0 STARLINK-5557,1 55770U 23028AF  24069.81179325 -.00000216  00000-0 -10309-4 0  9994,2 55770  69.9976 264.7681 0002901 269.5522  90.5305 14.98330176 57195,6950.192,96.107,574.074,570.041,0.0
55770.0,STARLINK-5557,PAYLOAD,2024-03-10 06:41:55,14.98343462,0.0002736,69.9985,263.5896,271.2042,88.8803,-0.00024779,-3.049e-05,0.0,0 STARLINK-5557,1 55770U 23028AF  24070.27910999 -.00003049  00000-0 -24779-3 0  9998,2 55770  69.9985 263.5896 0002736 271.2042  88.8803 14.98343462 57266,6950.151,96.106,573.918,570.115,0.0
55770.0,STARLINK-5557,PAYLOAD,2024-03-10 21:07:07,14.98330871,0.0002945,69.9991,262.0748,269.956,90.1262,-4.4982e-06,-1.47e-06,0.0,0 STARLINK-5557,1 55770U 23028AF  24070.87995188 -.00000147  00000-0 -44982-5 0  9993,2 55770  69.9991 262.0748 0002945 269.9560  90.1262 14.98330871 57359,6950.19,96.107,574.102,570.008,0.0
55770.0,STARLINK-5557,PAYLOAD,2024-03-10 22:43:15,14.98331284,0.0002942,69.9991,261.9064,270.0538,90.0284,5.9662e-07,-8.6e-07,0.0,0 STARLINK-5557,1 55770U 23028AF  24070.94671144 -.00000086  00000-0  59662-6 0  9997,2 55770  69.9991 261.9064 0002942 270.0538  90.0284 14.98331284 57377,6950.189,96.107,574.099,570.009,0.0
55770.0,STARLINK-5557,PAYLOAD,2024-03-12 11:34:21,14.98330489,0.000295,69.9991,258.035,270.8076,89.2745,1.021e-05,2.9e-07,0.0,0 STARLINK-5557,1 55770U 23028AF  24072.48219127  .00000029  00000-0  10210-4 0  9997,2 55770  69.9991 258.0350 0002950 270.8076  89.2745 14.98330489 57598,6950.191,96.107,574.107,570.006,0.0
55770.0,STARLINK-5557,PAYLOAD,2024-03-13 05:11:49,14.98332326,0.0002961,69.9989,256.1832,271.014,89.068,2.3824e-05,1.91e-06,0.0,0 STARLINK-5557,1 55770U 23028AF  24073.21654886  .00000191  00000-0  23824-4 0  9999,2 55770  69.9989 256.1832 0002961 271.0140  89.0680 14.98332326 57718,6950.186,96.107,574.109,569.993,0.0
55770.0,STARLINK-5557,PAYLOAD,2024-03-13 18:00:54,14.98330181,0.0002888,69.9986,254.8367,270.5201,89.5628,-2.7716e-06,-1.26e-06,0.0,0 STARLINK-5557,1 55770U 23028AF  24073.75063023 -.00000126  00000-0 -27716-5 0  9990,2 55770  69.9986 254.8367 0002888 270.5201  89.5628 14.98330181 57784,6950.192,96.107,574.065,570.05,0.0
55770.0,STARLINK-5557,PAYLOAD,2024-03-14 05:13:51,14.98328288,0.0002929,69.9988,253.6583,270.035,90.0473,-1.8893e-05,-3.18e-06,0.0,0 STARLINK-5557,1 55770U 23028AF  24074.21795213 -.00000318  00000-0 -18893-4 0  9993,2 55770  69.9988 253.6583 0002929 270.0350  90.0473 14.98328288 57868,6950.198,96.107,574.099,570.027,0.0
55770.0,STARLINK-5557,PAYLOAD,2024-03-14 19:39:03,14.98329233,0.0002974,69.999,252.143,269.2074,90.8744,-3.2359e-05,-4.79e-06,0.0,0 STARLINK-5557,1 55770U 23028AF  24074.81879217 -.00000479  00000-0 -32359-4 0  9997,2 55770  69.9990 252.1430 0002974 269.2074  90.8744 14.98329233 57948,6950.195,96.107,574.127,569.993,0.0
